<?xml version="1.0" encoding="UTF-8"?>
<ndm xmlns:xsi="http://www.w3.org/2001/XMLSchema-instance" xsi:noNamespaceSchemaLocation="https://sanaregistry.org/r/ndmxml_unqualified/ndmxml-2.0.0-master-2.0.xsd">
<omm id="CCSDS_OMM_VERS" version="2.0">
<header><CREATION_DATE/><ORIGINATOR/></header><body><segment><metadata><OBJECT_NAME>ONEWEB-0424</OBJECT_NAME><OBJECT_ID>2021-132AE</OBJECT_ID><CENTER_NAME>EARTH</CENTER_NAME><REF_FRAME>TEME</REF_FRAME><TIME_SYSTEM>UTC</TIME_SYSTEM><MEAN_ELEMENT_THEORY>SGP4</MEAN_ELEMENT_THEORY></metadata><data><meanElements><EPOCH>2023-12-25T21:42:47.550528</EPOCH><MEAN_MOTION>13.18784425</MEAN_MOTION><ECCENTRICITY>.0002082</ECCENTRICITY><INCLINATION>87.9219</INCLINATION><RA_OF_ASC_NODE>155.3760</RA_OF_ASC_NODE><ARG_OF_PERICENTER>93.6451</ARG_OF_PERICENTER><MEAN_ANOMALY>266.4919</MEAN_ANOMALY></meanElements><tleParameters><EPHEMERIS_TYPE>0</EPHEMERIS_TYPE><CLASSIFICATION_TYPE>U</CLASSIFICATION_TYPE><NORAD_CAT_ID>50497</NORAD_CAT_ID><ELEMENT_SET_NO>999</ELEMENT_SET_NO><REV_AT_EPOCH>10246</REV_AT_EPOCH><BSTAR>-.15026E-3</BSTAR><MEAN_MOTION_DOT>-.46E-6</MEAN_MOTION_DOT><MEAN_MOTION_DDOT>0</MEAN_MOTION_DDOT></tleParameters></data></segment></body></omm>
<omm id="CCSDS_OMM_VERS" version="2.0">
<header><CREATION_DATE/><ORIGINATOR/></header><body><segment><metadata><OBJECT_NAME>ONEWEB-0426</OBJECT_NAME><OBJECT_ID>2021-132AF</OBJECT_ID><CENTER_NAME>EARTH</CENTER_NAME><REF_FRAME>TEME</REF_FRAME><TIME_SYSTEM>UTC</TIME_SYSTEM><MEAN_ELEMENT_THEORY>SGP4</MEAN_ELEMENT_THEORY></metadata><data><meanElements><EPOCH>2023-12-25T20:48:10.243008</EPOCH><MEAN_MOTION>13.18777767</MEAN_MOTION><ECCENTRICITY>.0001244</ECCENTRICITY><INCLINATION>87.9212</INCLINATION><RA_OF_ASC_NODE>155.4071</RA_OF_ASC_NODE><ARG_OF_PERICENTER>62.3103</ARG_OF_PERICENTER><MEAN_ANOMALY>297.8155</MEAN_ANOMALY></meanElements><tleParameters><EPHEMERIS_TYPE>0</EPHEMERIS_TYPE><CLASSIFICATION_TYPE>U</CLASSIFICATION_TYPE><NORAD_CAT_ID>50498</NORAD_CAT_ID><ELEMENT_SET_NO>999</ELEMENT_SET_NO><REV_AT_EPOCH>10240</REV_AT_EPOCH><BSTAR>.14378E-3</BSTAR><MEAN_MOTION_DOT>.7E-6</MEAN_MOTION_DOT><MEAN_MOTION_DDOT>0</MEAN_MOTION_DDOT></tleParameters></data></segment></body></omm>
<omm id="CCSDS_OMM_VERS" version="2.0">
<header><CREATION_DATE/><ORIGINATOR/></header><body><segment><metadata><OBJECT_NAME>ONEWEB-0427</OBJECT_NAME><OBJECT_ID>2021-132AG</OBJECT_ID><CENTER_NAME>EARTH</CENTER_NAME><REF_FRAME>TEME</REF_FRAME><TIME_SYSTEM>UTC</TIME_SYSTEM><MEAN_ELEMENT_THEORY>SGP4</MEAN_ELEMENT_THEORY></metadata><data><meanElements><EPOCH>2023-12-25T21:40:07.615488</EPOCH><MEAN_MOTION>13.18687655</MEAN_MOTION><ECCENTRICITY>.0001506</ECCENTRICITY><INCLINATION>87.9216</INCLINATION><RA_OF_ASC_NODE>155.3754</RA_OF_ASC_NODE><ARG_OF_PERICENTER>85.2979</ARG_OF_PERICENTER><MEAN_ANOMALY>274.8325</MEAN_ANOMALY></meanElements><tleParameters><EPHEMERIS_TYPE>0</EPHEMERIS_TYPE><CLASSIFICATION_TYPE>U</CLASSIFICATION_TYPE><NORAD_CAT_ID>50499</NORAD_CAT_ID><ELEMENT_SET_NO>999</ELEMENT_SET_NO><REV_AT_EPOCH>10243</REV_AT_EPOCH><BSTAR>-.34007E-5</BSTAR><MEAN_MOTION_DOT>.12E-6</MEAN_MOTION_DOT><MEAN_MOTION_DDOT>0</MEAN_MOTION_DDOT></tleParameters></data></segment></body></omm>
<omm id="CCSDS_OMM_VERS" version="2.0">
<header><CREATION_DATE/><ORIGINATOR/></header><body><segment><metadata><OBJECT_NAME>ONEWEB-0429</OBJECT_NAME><OBJECT_ID>2021-132AH</OBJECT_ID><CENTER_NAME>EARTH</CENTER_NAME><REF_FRAME>TEME</REF_FRAME><TIME_SYSTEM>UTC</TIME_SYSTEM><MEAN_ELEMENT_THEORY>SGP4</MEAN_ELEMENT_THEORY></metadata><data><meanElements><EPOCH>2023-12-25T21:21:56.189952</EPOCH><MEAN_MOTION>13.18684797</MEAN_MOTION><ECCENTRICITY>.0001464</ECCENTRICITY><INCLINATION>87.9201</INCLINATION><RA_OF_ASC_NODE>155.3753</RA_OF_ASC_NODE><ARG_OF_PERICENTER>97.5483</ARG_OF_PERICENTER><MEAN_ANOMALY>262.5815</MEAN_ANOMALY></meanElements><tleParameters><EPHEMERIS_TYPE>0</EPHEMERIS_TYPE><CLASSIFICATION_TYPE>U</CLASSIFICATION_TYPE><NORAD_CAT_ID>50500</NORAD_CAT_ID><ELEMENT_SET_NO>999</ELEMENT_SET_NO><REV_AT_EPOCH>10240</REV_AT_EPOCH><BSTAR>-.42563E-4</BSTAR><MEAN_MOTION_DOT>-.4E-7</MEAN_MOTION_DOT><MEAN_MOTION_DDOT>0</MEAN_MOTION_DDOT></tleParameters></data></segment></body></omm>
<omm id="CCSDS_OMM_VERS" version="2.0">
<header><CREATION_DATE/><ORIGINATOR/></header><body><segment><metadata><OBJECT_NAME>ONEWEB-0430</OBJECT_NAME><OBJECT_ID>2021-132AJ</OBJECT_ID><CENTER_NAME>EARTH</CENTER_NAME><REF_FRAME>TEME</REF_FRAME><TIME_SYSTEM>UTC</TIME_SYSTEM><MEAN_ELEMENT_THEORY>SGP4</MEAN_ELEMENT_THEORY></metadata><data><meanElements><EPOCH>2023-12-25T22:55:38.828064</EPOCH><MEAN_MOTION>13.18785465</MEAN_MOTION><ECCENTRICITY>.0001881</ECCENTRICITY><INCLINATION>87.9240</INCLINATION><RA_OF_ASC_NODE>155.3672</RA_OF_ASC_NODE><ARG_OF_PERICENTER>80.1060</ARG_OF_PERICENTER><MEAN_ANOMALY>280.0284</MEAN_ANOMALY></meanElements><tleParameters><EPHEMERIS_TYPE>0</EPHEMERIS_TYPE><CLASSIFICATION_TYPE>U</CLASSIFICATION_TYPE><NORAD_CAT_ID>50501</NORAD_CAT_ID><ELEMENT_SET_NO>999</ELEMENT_SET_NO><REV_AT_EPOCH>10374</REV_AT_EPOCH><BSTAR>.12016E-2</BSTAR><MEAN_MOTION_DOT>.487E-5</MEAN_MOTION_DOT><MEAN_MOTION_DDOT>0</MEAN_MOTION_DDOT></tleParameters></data></segment></body></omm>
<omm id="CCSDS_OMM_VERS" version="2.0">
<header><CREATION_DATE/><ORIGINATOR/></header><body><segment><metadata><OBJECT_NAME>ONEWEB-0432</OBJECT_NAME><OBJECT_ID>2021-132AK</OBJECT_ID><CENTER_NAME>EARTH</CENTER_NAME><REF_FRAME>TEME</REF_FRAME><TIME_SYSTEM>UTC</TIME_SYSTEM><MEAN_ELEMENT_THEORY>SGP4</MEAN_ELEMENT_THEORY></metadata><data><meanElements><EPOCH>2023-12-25T21:51:56.435040</EPOCH><MEAN_MOTION>13.18783998</MEAN_MOTION><ECCENTRICITY>.0001585</ECCENTRICITY><INCLINATION>87.9218</INCLINATION><RA_OF_ASC_NODE>155.3746</RA_OF_ASC_NODE><ARG_OF_PERICENTER>99.7150</ARG_OF_PERICENTER><MEAN_ANOMALY>260.4161</MEAN_ANOMALY></meanElements><tleParameters><EPHEMERIS_TYPE>0</EPHEMERIS_TYPE><CLASSIFICATION_TYPE>U</CLASSIFICATION_TYPE><NORAD_CAT_ID>50502</NORAD_CAT_ID><ELEMENT_SET_NO>999</ELEMENT_SET_NO><REV_AT_EPOCH>10240</REV_AT_EPOCH><BSTAR>-.43929E-6</BSTAR><MEAN_MOTION_DOT>.13E-6</MEAN_MOTION_DOT><MEAN_MOTION_DDOT>0</MEAN_MOTION_DDOT></tleParameters></data></segment></body></omm>
<omm id="CCSDS_OMM_VERS" version="2.0">
<header><CREATION_DATE/><ORIGINATOR/></header><body><segment><metadata><OBJECT_NAME>ONEWEB-0440</OBJECT_NAME><OBJECT_ID>2021-132AL</OBJECT_ID><CENTER_NAME>EARTH</CENTER_NAME><REF_FRAME>TEME</REF_FRAME><TIME_SYSTEM>UTC</TIME_SYSTEM><MEAN_ELEMENT_THEORY>SGP4</MEAN_ELEMENT_THEORY></metadata><data><meanElements><EPOCH>2023-12-25T21:33:41.100768</EPOCH><MEAN_MOTION>13.18787150</MEAN_MOTION><ECCENTRICITY>.0000989</ECCENTRICITY><INCLINATION>87.9219</INCLINATION><RA_OF_ASC_NODE>155.3603</RA_OF_ASC_NODE><ARG_OF_PERICENTER>116.6263</ARG_OF_PERICENTER><MEAN_ANOMALY>243.4971</MEAN_ANOMALY></meanElements><tleParameters><EPHEMERIS_TYPE>0</EPHEMERIS_TYPE><CLASSIFICATION_TYPE>U</CLASSIFICATION_TYPE><NORAD_CAT_ID>50503</NORAD_CAT_ID><ELEMENT_SET_NO>999</ELEMENT_SET_NO><REV_AT_EPOCH>10239</REV_AT_EPOCH><BSTAR>.24735E-4</BSTAR><MEAN_MOTION_DOT>.23E-6</MEAN_MOTION_DOT><MEAN_MOTION_DDOT>0</MEAN_MOTION_DDOT></tleParameters></data></segment></body></omm>
<omm id="CCSDS_OMM_VERS" version="2.0">
<header><CREATION_DATE/><ORIGINATOR/></header><body><segment><metadata><OBJECT_NAME>ONEWEB-0450</OBJECT_NAME><OBJECT_ID>2021-132AM</OBJECT_ID><CENTER_NAME>EARTH</CENTER_NAME><REF_FRAME>TEME</REF_FRAME><TIME_SYSTEM>UTC</TIME_SYSTEM><MEAN_ELEMENT_THEORY>SGP4</MEAN_ELEMENT_THEORY></metadata><data><meanElements><EPOCH>2023-12-25T21:24:35.331840</EPOCH><MEAN_MOTION>13.18782279</MEAN_MOTION><ECCENTRICITY>.0001576</ECCENTRICITY><INCLINATION>87.9187</INCLINATION><RA_OF_ASC_NODE>155.3916</RA_OF_ASC_NODE><ARG_OF_PERICENTER>109.1526</ARG_OF_PERICENTER><MEAN_ANOMALY>250.9776</MEAN_ANOMALY></meanElements><tleParameters><EPHEMERIS_TYPE>0</EPHEMERIS_TYPE><CLASSIFICATION_TYPE>U</CLASSIFICATION_TYPE><NORAD_CAT_ID>50504</NORAD_CAT_ID><ELEMENT_SET_NO>999</ELEMENT_SET_NO><REV_AT_EPOCH>10242</REV_AT_EPOCH><BSTAR>.76121E-4</BSTAR><MEAN_MOTION_DOT>.43E-6</MEAN_MOTION_DOT><MEAN_MOTION_DDOT>0</MEAN_MOTION_DDOT></tleParameters></data></segment></body></omm>

</ndm>
