50497,ONEWEB-0424,2021,109.19,148.0,+,87.92,Active,1,LEO,Kazakhstan,UK,Commercial,Communications,Soyuz,1 50497U 21132AE  23359.90471702 -.00000046  00000+0 -15026-3 0  9994,2 50497  87.9219 155.3760 0002082  93.6451 266.4919 13.18784425102463,13.18784425,0.0002082,LEO
50498,ONEWEB-0426,2021,109.19,148.0,+,87.92,Active,1,LEO,Kazakhstan,UK,Commercial,Communications,Soyuz,1 50498U 21132AF  23359.86678522  .00000070  00000+0  14378-3 0  9993,2 50498  87.9212 155.4071 0001244  62.3103 297.8155 13.18777767102404,13.18777767,0.0001244,LEO
50499,ONEWEB-0427,2021,109.2,148.0,+,87.92,Active,1,LEO,Kazakhstan,UK,Commercial,Communications,Soyuz,1 50499U 21132AG  23359.90286592  .00000012  00000+0 -34007-5 0  9991,2 50499  87.9216 155.3754 0001506  85.2979 274.8325 13.18687655102435,13.18687655,0.0001506,LEO
50500,ONEWEB-0429,2021,109.2,148.0,+,87.92,Active,1,LEO,Kazakhstan,UK,Commercial,Communications,Soyuz,1 50500U 21132AH  23359.89023368 -.00000004  00000+0 -42563-4 0  9999,2 50500  87.9201 155.3753 0001464  97.5483 262.5815 13.18684797102409,13.18684797,0.0001464,LEO
50501,ONEWEB-0430,2021,109.19,148.0,+,87.92,Active,1,LEO,Kazakhstan,UK,Commercial,Communications,Soyuz,1 50501U 21132AJ  23359.95531051  .00000487  00000+0  12016-2 0  9991,2 50501  87.9240 155.3672 0001881  80.1060 280.0284 13.18785465103742,13.18785465,0.0001881,LEO
50502,ONEWEB-0432,2021,109.19,148.0,+,87.92,Active,1,LEO,Kazakhstan,UK,Commercial,Communications,Soyuz,1 50502U 21132AK  23359.91106985  .00000013  00000+0 -43929-6 0  9999,2 50502  87.9218 155.3746 0001585  99.7150 260.4161 13.18783998102404,13.18783998,0.0001585,LEO
50503,ONEWEB-0440,2021,109.19,148.0,+,87.92,Active,1,LEO,Kazakhstan,UK,Commercial,Communications,Soyuz,1 50503U 21132AL  23359.89839237  .00000023  00000+0  24735-4 0  9992,2 50503  87.9219 155.3603 0000989 116.6263 243.4971 13.18787150102391,13.1878715,9.89e-05,LEO
50504,ONEWEB-0450,2021,109.19,148.0,+,87.92,Active,1,LEO,Kazakhstan,UK,Commercial,Communications,Soyuz,1 50504U 21132AM  23359.89207560  .00000043  00000+0  76121-4 0  9999,2 50504  87.9187 155.3916 0001576 109.1526 250.9776 13.18782279102422,13.18782279,0.0001576,LEO
